{
  "norad_id": 53726,
  "name": "STARLINK-4697",
  "history": [
    {
      "epoch": "2026-03-28T16:32:30.759360Z",
      "apogee_km": 540.4526318814451,
      "perigee_km": 538.9395634263265,
      "latitude_deg": 3.01698128758767e-05,
      "longitude_deg": 94.46987181591888,
      "height_km": 540.1180077108311,
      "semi_major_axis_km": 6917.8330976538855,
      "eccentricity": 0.00010936,
      "inclination_deg": 53.2156,
      "raan_deg": 168.7041,
      "arg_perigee_deg": 51.1753,
      "mean_anomaly_deg": 308.9337,
      "mean_motion_rev_day": 15.08855472
    },
    {
      "epoch": "2026-03-30T05:06:22.049280Z",
      "apogee_km": 540.5726785516918,
      "perigee_km": 538.857051289192,
      "latitude_deg": 8.017711738164727e-06,
      "longitude_deg": -102.33599229674552,
      "height_km": 540.1907750639688,
      "semi_major_axis_km": 6917.851864920442,
      "eccentricity": 0.000124,
      "inclination_deg": 53.2151,
      "raan_deg": 161.8636,
      "arg_perigee_deg": 60.689,
      "mean_anomaly_deg": 299.4226,
      "mean_motion_rev_day": 15.08849332
    },
    {
      "epoch": "2026-03-30T05:06:22.050144Z",
      "apogee_km": 540.5728860872487,
      "perigee_km": 538.8568437536351,
      "latitude_deg": 5.59192994430984e-06,
      "longitude_deg": -102.33599771036057,
      "height_km": 540.190673468291,
      "semi_major_axis_km": 6917.851864920442,
      "eccentricity": 0.00012403,
      "inclination_deg": 53.2151,
      "raan_deg": 161.8636,
      "arg_perigee_deg": 60.689,
      "mean_anomaly_deg": 299.4226,
      "mean_motion_rev_day": 15.08849332
    }
  ]
}